{
  "type": "FeatureCollection",
  "features": [
    {
      "type": "Feature",
      "properties": {
        "norad_id": 66968,
        "name": "STARLINK-36152",
        "group": "last-30-days",
        "lat": -16.759475034641316,
        "lon": -58.70572716517871,
        "alt_km": 349.74077949370894,
        "timestamp": "2025-12-23T07:45:08.118410+00:00",
        "meta_object_name": "STARLINK-36152",
        "meta_object_id": "2025-288K",
        "meta_epoch": "2025-12-22T22:00:03.000096",
        "meta_mean_motion": 15.75352216,
        "meta_eccentricity": 0.00014407,
        "meta_inclination": 43.0006,
        "meta_ra_of_asc_node": 104.9033,
        "meta_arg_of_pericenter": 285.2409,
        "meta_mean_anomaly": 133.8086,
        "meta_ephemeris_type": 0,
        "meta_classification_type": "U",
        "meta_norad_cat_id": 66968,
        "meta_element_set_no": 999,
        "meta_rev_at_epoch": 346,
        "meta_bstar": -0.013252689,
        "meta_mean_motion_dot": -0.01808525,
        "meta_mean_motion_ddot": 0,
        "tle_line1": "1 66968U 25288K   25356.91670139 -.01808525  00000+0 -13253-1 0  9992",
        "tle_line2": "2 66968  43.0006 104.9033 0001440 285.2409 133.8086 15.75352216  3468"
      },
      "geometry": {
        "type": "Point",
        "coordinates": [
          -58.70572716517871,
          -16.759475034641316
        ]
      }
    },
    {
      "type": "Feature",
      "properties": {
        "norad_id": 66969,
        "name": "STARLINK-36149",
        "group": "last-30-days",
        "lat": -22.772138676123703,
        "lon": -50.809489669895804,
        "alt_km": 349.9790953542333,
        "timestamp": "2025-12-23T07:45:08.118420+00:00",
        "meta_object_name": "STARLINK-36149",
        "meta_object_id": "2025-288L",
        "meta_epoch": "2025-12-22T22:00:03.000096",
        "meta_mean_motion": 15.75340936,
        "meta_eccentricity": 0.00016912,
        "meta_inclination": 43.0006,
        "meta_ra_of_asc_node": 104.8792,
        "meta_arg_of_pericenter": 284.642,
        "meta_mean_anomaly": 143.9919,
        "meta_ephemeris_type": 0,
        "meta_classification_type": "U",
        "meta_norad_cat_id": 66969,
        "meta_element_set_no": 999,
        "meta_rev_at_epoch": 346,
        "meta_bstar": -0.013109375,
        "meta_mean_motion_dot": -0.01790834,
        "meta_mean_motion_ddot": 0,
        "tle_line1": "1 66969U 25288L   25356.91670139 -.01790834  00000+0 -13109-1 0  9996",
        "tle_line2": "2 66969  43.0006 104.8792 0001691 284.6420 143.9919 15.75340936  3467"
      },
      "geometry": {
        "type": "Point",
        "coordinates": [
          -50.809489669895804,
          -22.772138676123703
        ]
      }
    },
    {
      "type": "Feature",
      "properties": {
        "norad_id": 66970,
        "name": "STARLINK-35703",
        "group": "last-30-days",
        "lat": -27.28656085807084,
        "lon": -43.99243909984623,
        "alt_km": 350.39885835210225,
        "timestamp": "2025-12-23T07:45:08.118431+00:00",
        "meta_object_name": "STARLINK-35703",
        "meta_object_id": "2025-288M",
        "meta_epoch": "2025-12-22T22:00:03.000096",
        "meta_mean_motion": 15.75329199,
        "meta_eccentricity": 0.00014724,
        "meta_inclination": 43.0008,
        "meta_ra_of_asc_node": 104.8596,
        "meta_arg_of_pericenter": 293.4855,
        "meta_mean_anomaly": 142.8212,
        "meta_ephemeris_type": 0,
        "meta_classification_type": "U",
        "meta_norad_cat_id": 66970,
        "meta_element_set_no": 999,
        "meta_rev_at_epoch": 346,
        "meta_bstar": -0.012984539,
        "meta_mean_motion_dot": -0.01774899,
        "meta_mean_motion_ddot": 0,
        "tle_line1": "1 66970U 25288M   25356.91670139 -.01774899  00000+0 -12985-1 0  9992",
        "tle_line2": "2 66970  43.0008 104.8596 0001472 293.4855 142.8212 15.75329199  3462"
      },
      "geometry": {
        "type": "Point",
        "coordinates": [
          -43.99243909984623,
          -27.28656085807084
        ]
      }
    },
    {
      "type": "Feature",
      "properties": {
        "norad_id": 66971,
        "name": "STARLINK-35678",
        "group": "last-30-days",
        "lat": -17.996366662864716,
        "lon": -57.162109718426834,
        "alt_km": 349.6641032975631,
        "timestamp": "2025-12-23T07:45:08.118441+00:00",
        "meta_object_name": "STARLINK-35678",
        "meta_object_id": "2025-288N",
        "meta_epoch": "2025-12-22T22:00:03.000096",
        "meta_mean_motion": 15.75271002,
        "meta_eccentricity": 0.00014343,
        "meta_inclination": 43.0008,
        "meta_ra_of_asc_node": 104.8995,
        "meta_arg_of_pericenter": 276.2014,
        "meta_mean_anomaly": 144.8479,
        "meta_ephemeris_type": 0,
        "meta_classification_type": "U",
        "meta_norad_cat_id": 66971,
        "meta_element_set_no": 999,
        "meta_rev_at_epoch": 346,
        "meta_bstar": -0.012781779,
        "meta_mean_motion_dot": -0.0174656,
        "meta_mean_motion_ddot": 0,
        "tle_line1": "1 66971U 25288N   25356.91670139 -.01746560  00000+0 -12782-1 0  9992",
        "tle_line2": "2 66971  43.0008 104.8995 0001434 276.2014 144.8479 15.75271002  3466"
      },
      "geometry": {
        "type": "Point",
        "coordinates": [
          -57.162109718426834,
          -17.996366662864716
        ]
      }
    },
    {
      "type": "Feature",
      "properties": {
        "norad_id": 66972,
        "name": "STARLINK-34846",
        "group": "last-30-days",
        "lat": -19.206675253651483,
        "lon": -55.61611915154255,
        "alt_km": 349.72621325077034,
        "timestamp": "2025-12-23T07:45:08.118450+00:00",
        "meta_object_name": "STARLINK-34846",
        "meta_object_id": "2025-288P",
        "meta_epoch": "2025-12-22T22:00:03.000096",
        "meta_mean_motion": 15.75349317,
        "meta_eccentricity": 0.00017299,
        "meta_inclination": 43.0007,
        "meta_ra_of_asc_node": 104.8948,
        "meta_arg_of_pericenter": 280.4245,
        "meta_mean_anomaly": 142.4654,
        "meta_ephemeris_type": 0,
        "meta_classification_type": "U",
        "meta_norad_cat_id": 66972,
        "meta_element_set_no": 999,
        "meta_rev_at_epoch": 346,
        "meta_bstar": -0.013264155,
        "meta_mean_motion_dot": -0.01809932,
        "meta_mean_motion_ddot": 0,
        "tle_line1": "1 66972U 25288P   25356.91670139 -.01809932  00000+0 -13264-1 0  9992",
        "tle_line2": "2 66972  43.0007 104.8948 0001729 280.4245 142.4654 15.75349317  3468"
      },
      "geometry": {
        "type": "Point",
        "coordinates": [
          -55.61611915154255,
          -19.206675253651483
        ]
      }
    },
    {
      "type": "Feature",
      "properties": {
        "norad_id": 66973,
        "name": "STARLINK-35778",
        "group": "last-30-days",
        "lat": -20.40640600286651,
        "lon": -54.043564225581214,
        "alt_km": 349.6104244267708,
        "timestamp": "2025-12-23T07:45:08.118462+00:00",
        "meta_object_name": "STARLINK-35778",
        "meta_object_id": "2025-288Q",
        "meta_epoch": "2025-12-22T22:00:03.000096",
        "meta_mean_motion": 15.75347246,
        "meta_eccentricity": 0.00018501,
        "meta_inclination": 43.0006,
        "meta_ra_of_asc_node": 104.8901,
        "meta_arg_of_pericenter": 276.0337,
        "meta_mean_anomaly": 148.7602,
        "meta_ephemeris_type": 0,
        "meta_classification_type": "U",
        "meta_norad_cat_id": 66973,
        "meta_element_set_no": 999,
        "meta_rev_at_epoch": 346,
        "meta_bstar": -0.013163,
        "meta_mean_motion_dot": -0.01797818,
        "meta_mean_motion_ddot": 0,
        "tle_line1": "1 66973U 25288Q   25356.91670139 -.01797818  00000+0 -13163-1 0  9990",
        "tle_line2": "2 66973  43.0006 104.8901 0001850 276.0337 148.7602 15.75347246  3466"
      },
      "geometry": {
        "type": "Point",
        "coordinates": [
          -54.043564225581214,
          -20.40640600286651
        ]
      }
    },
    {
      "type": "Feature",
      "properties": {
        "norad_id": 66974,
        "name": "STARLINK-35780",
        "group": "last-30-days",
        "lat": -21.602326162357663,
        "lon": -52.43231231969764,
        "alt_km": 349.8892824450659,
        "timestamp": "2025-12-23T07:45:08.118474+00:00",
        "meta_object_name": "STARLINK-35780",
        "meta_object_id": "2025-288R",
        "meta_epoch": "2025-12-22T22:00:03.000096",
        "meta_mean_motion": 15.75358523,
        "meta_eccentricity": 0.00012115,
        "meta_inclination": 43.0009,
        "meta_ra_of_asc_node": 104.8853,
        "meta_arg_of_pericenter": 278.5928,
        "meta_mean_anomaly": 148.1122,
        "meta_ephemeris_type": 0,
        "meta_classification_type": "U",
        "meta_norad_cat_id": 66974,
        "meta_element_set_no": 999,
        "meta_rev_at_epoch": 346,
        "meta_bstar": -0.013246508,
        "meta_mean_motion_dot": -0.01808043,
        "meta_mean_motion_ddot": 0,
        "tle_line1": "1 66974U 25288R   25356.91670139 -.01808043  00000+0 -13247-1 0  9997",
        "tle_line2": "2 66974  43.0009 104.8853 0001211 278.5928 148.1122 15.75358523  3461"
      },
      "geometry": {
        "type": "Point",
        "coordinates": [
          -52.43231231969764,
          -21.602326162357663
        ]
      }
    }
  ]
}